{
  "type": "FeatureCollection",
  "features": [
    {
      "type": "Feature",
      "properties": {
        "norad_id": 33860,
        "name": "IRIDIUM 33 DEB",
        "group": "iridium-33-debris",
        "lat": 70.64604578842759,
        "lon": 33.33329503597066,
        "alt_km": 663.9294505176158,
        "timestamp": "2025-12-22T09:53:37.785289+00:00",
        "meta_object_name": "IRIDIUM 33 DEB",
        "meta_object_id": "1997-051AD",
        "meta_epoch": "2025-12-22T01:29:22.706304",
        "meta_mean_motion": 14.67472484,
        "meta_eccentricity": 0.0006313,
        "meta_inclination": 86.3821,
        "meta_ra_of_asc_node": 23.1111,
        "meta_arg_of_pericenter": 322.0351,
        "meta_mean_anomaly": 60.1727,
        "meta_ephemeris_type": 0,
        "meta_classification_type": "U",
        "meta_norad_cat_id": 33860,
        "meta_element_set_no": 999,
        "meta_rev_at_epoch": 88859,
        "meta_bstar": 0.0011042,
        "meta_mean_motion_dot": 6.276e-05,
        "meta_mean_motion_ddot": 0,
        "tle_line1": "1 33860U 97051AD  25356.06206836  .00006276  00000+0  11042-2 0  9994",
        "tle_line2": "2 33860  86.3821  23.1111 0006313 322.0351  60.1727 14.67472484888596"
      },
      "geometry": {
        "type": "Point",
        "coordinates": [
          33.33329503597066,
          70.64604578842759
        ]
      }
    },
    {
      "type": "Feature",
      "properties": {
        "norad_id": 33862,
        "name": "IRIDIUM 33 DEB",
        "group": "iridium-33-debris",
        "lat": -0.5874980218417503,
        "lon": -146.69854281429468,
        "alt_km": 695.2841578751058,
        "timestamp": "2025-12-22T09:53:37.785300+00:00",
        "meta_object_name": "IRIDIUM 33 DEB",
        "meta_object_id": "1997-051AF",
        "meta_epoch": "2025-12-21T13:59:31.257024",
        "meta_mean_motion": 14.69601315,
        "meta_eccentricity": 0.0052554,
        "meta_inclination": 86.4078,
        "meta_ra_of_asc_node": 33.6303,
        "meta_arg_of_pericenter": 39.5195,
        "meta_mean_anomaly": 76.2806,
        "meta_ephemeris_type": 0,
        "meta_classification_type": "U",
        "meta_norad_cat_id": 33862,
        "meta_element_set_no": 999,
        "meta_rev_at_epoch": 88953,
        "meta_bstar": 0.0010364,
        "meta_mean_motion_dot": 6.314e-05,
        "meta_mean_motion_ddot": 0,
        "tle_line1": "1 33862U 97051AF  25355.58300066  .00006314  00000+0  10364-2 0  9991",
        "tle_line2": "2 33862  86.4078  33.6303 0052554  39.5195  76.2806 14.69601315889536"
      },
      "geometry": {
        "type": "Point",
        "coordinates": [
          -146.69854281429468,
          -0.5874980218417503
        ]
      }
    },
    {
      "type": "Feature",
      "properties": {
        "norad_id": 33866,
        "name": "IRIDIUM 33 DEB",
        "group": "iridium-33-debris",
        "lat": 32.99362425919121,
        "lon": -93.46403383539254,
        "alt_km": 726.0637229249496,
        "timestamp": "2025-12-22T09:53:37.785311+00:00",
        "meta_object_name": "IRIDIUM 33 DEB",
        "meta_object_id": "1997-051AK",
        "meta_epoch": "2025-12-21T06:30:23.838336",
        "meta_mean_motion": 14.25298734,
        "meta_eccentricity": 0.0115015,
        "meta_inclination": 86.3001,
        "meta_ra_of_asc_node": 89.4265,
        "meta_arg_of_pericenter": 134.3497,
        "meta_mean_anomaly": 280.5396,
        "meta_ephemeris_type": 0,
        "meta_classification_type": "U",
        "meta_norad_cat_id": 33866,
        "meta_element_set_no": 999,
        "meta_rev_at_epoch": 86932,
        "meta_bstar": 0.00042898,
        "meta_mean_motion_dot": 1.102e-05,
        "meta_mean_motion_ddot": 0,
        "tle_line1": "1 33866U 97051AK  25355.27110924  .00001102  00000+0  42898-3 0  9991",
        "tle_line2": "2 33866  86.3001  89.4265 0115015 134.3497 280.5396 14.25298734869320"
      },
      "geometry": {
        "type": "Point",
        "coordinates": [
          -93.46403383539254,
          32.99362425919121
        ]
      }
    },
    {
      "type": "Feature",
      "properties": {
        "norad_id": 33867,
        "name": "IRIDIUM 33 DEB",
        "group": "iridium-33-debris",
        "lat": 82.45778585510448,
        "lon": 136.3298848426978,
        "alt_km": 276.0225754257299,
        "timestamp": "2025-12-22T09:53:37.785322+00:00",
        "meta_object_name": "IRIDIUM 33 DEB",
        "meta_object_id": "1997-051AL",
        "meta_epoch": "2025-12-21T22:55:51.891744",
        "meta_mean_motion": 15.90971468,
        "meta_eccentricity": 0.0014243,
        "meta_inclination": 86.3678,
        "meta_ra_of_asc_node": 345.2475,
        "meta_arg_of_pericenter": 91.4909,
        "meta_mean_anomaly": 268.8004,
        "meta_ephemeris_type": 0,
        "meta_classification_type": "U",
        "meta_norad_cat_id": 33867,
        "meta_element_set_no": 999,
        "meta_rev_at_epoch": 89656,
        "meta_bstar": 0.0080182,
        "meta_mean_motion_dot": 0.02400384,
        "meta_mean_motion_ddot": 0.0036963,
        "tle_line1": "1 33867U 97051AL  25355.95546171  .02400384  36963-2  80182-2 0  9998",
        "tle_line2": "2 33867  86.3678 345.2475 0014243  91.4909 268.8004 15.90971468896565"
      },
      "geometry": {
        "type": "Point",
        "coordinates": [
          136.3298848426978,
          82.45778585510448
        ]
      }
    },
    {
      "type": "Feature",
      "properties": {
        "norad_id": 33870,
        "name": "IRIDIUM 33 DEB",
        "group": "iridium-33-debris",
        "lat": -61.077029222063985,
        "lon": -119.29525503266974,
        "alt_km": 747.4310977724763,
        "timestamp": "2025-12-22T09:53:37.785333+00:00",
        "meta_object_name": "IRIDIUM 33 DEB",
        "meta_object_id": "1997-051AP",
        "meta_epoch": "2025-12-21T16:45:39.931776",
        "meta_mean_motion": 14.45892249,
        "meta_eccentricity": 0.0022337,
        "meta_inclination": 86.3739,
        "meta_ra_of_asc_node": 54.4207,
        "meta_arg_of_pericenter": 149.5314,
        "meta_mean_anomaly": 337.9924,
        "meta_ephemeris_type": 0,
        "meta_classification_type": "U",
        "meta_norad_cat_id": 33870,
        "meta_element_set_no": 999,
        "meta_rev_at_epoch": 88266,
        "meta_bstar": 0.00052329,
        "meta_mean_motion_dot": 1.884e-05,
        "meta_mean_motion_ddot": 0,
        "tle_line1": "1 33870U 97051AP  25355.69837884  .00001884  00000+0  52329-3 0  9990",
        "tle_line2": "2 33870  86.3739  54.4207 0022337 149.5314 337.9924 14.45892249882660"
      },
      "geometry": {
        "type": "Point",
        "coordinates": [
          -119.29525503266974,
          -61.077029222063985
        ]
      }
    },
    {
      "type": "Feature",
      "properties": {
        "norad_id": 33881,
        "name": "IRIDIUM 33 DEB",
        "group": "iridium-33-debris",
        "lat": 55.856321472111475,
        "lon": -82.80729210346105,
        "alt_km": 657.4808823233006,
        "timestamp": "2025-12-22T09:53:37.785343+00:00",
        "meta_object_name": "IRIDIUM 33 DEB",
        "meta_object_id": "1997-051BA",
        "meta_epoch": "2025-12-22T01:53:28.694112",
        "meta_mean_motion": 14.56726775,
        "meta_eccentricity": 0.0061366,
        "meta_inclination": 86.3868,
        "meta_ra_of_asc_node": 102.6839,
        "meta_arg_of_pericenter": 144.447,
        "meta_mean_anomaly": 32.1992,
        "meta_ephemeris_type": 0,
        "meta_classification_type": "U",
        "meta_norad_cat_id": 33881,
        "meta_element_set_no": 999,
        "meta_rev_at_epoch": 87636,
        "meta_bstar": 0.0020421,
        "meta_mean_motion_dot": 9.388e-05,
        "meta_mean_motion_ddot": 0,
        "tle_line1": "1 33881U 97051BA  25356.07880433  .00009388  00000+0  20421-2 0  9997",
        "tle_line2": "2 33881  86.3868 102.6839 0061366 144.4470  32.1992 14.56726775876365"
      },
      "geometry": {
        "type": "Point",
        "coordinates": [
          -82.80729210346105,
          55.856321472111475
        ]
      }
    },
    {
      "type": "Feature",
      "properties": {
        "norad_id": 33884,
        "name": "IRIDIUM 33 DEB",
        "group": "iridium-33-debris",
        "lat": 75.75108008419309,
        "lon": 19.93146912839662,
        "alt_km": 635.298917779277,
        "timestamp": "2025-12-22T09:53:37.785354+00:00",
        "meta_object_name": "IRIDIUM 33 DEB",
        "meta_object_id": "1997-051BD",
        "meta_epoch": "2025-12-21T19:42:17.168256",
        "meta_mean_motion": 14.77591703,
        "meta_eccentricity": 0.0008977,
        "meta_inclination": 86.3691,
        "meta_ra_of_asc_node": 5.7181,
        "meta_arg_of_pericenter": 287.8241,
        "meta_mean_anomaly": 245.5748,
        "meta_ephemeris_type": 0,
        "meta_classification_type": "U",
        "meta_norad_cat_id": 33884,
        "meta_element_set_no": 999,
        "meta_rev_at_epoch": 88981,
        "meta_bstar": 0.0012316,
        "meta_mean_motion_dot": 8.831e-05,
        "meta_mean_motion_ddot": 0,
        "tle_line1": "1 33884U 97051BD  25355.82103204  .00008831  00000+0  12316-2 0  9992",
        "tle_line2": "2 33884  86.3691   5.7181 0008977 287.8241 245.5748 14.77591703889819"
      },
      "geometry": {
        "type": "Point",
        "coordinates": [
          19.93146912839662,
          75.75108008419309
        ]
      }
    }
  ]
}